CTC2_L_00327001-01
1 10359U 23782MF  26037.47793981  .00000000  00000+0  00000-0 0  9995
2 10359  50.0000   0.0000 0000000   0.0000   0.0000 13.56072426    12
CTC2_L_00327001-02
1 10360U 26849BX  26037.47793981  .00000000  00000+0  00000-0 0  9994
2 10360  50.0000   0.0000 0000000   0.0000  90.0000 13.56072426    13
CTC2_L_00327001-03
1 10361U 23625WX  26037.47793981  .00000000  00000+0  00000-0 0  9994
2 10361  50.0000   0.0000 0000000   0.0000 180.0000 13.56072426    14
CTC2_L_00327001-04
1 10362U 23394GI  26037.47793981  .00000000  00000+0  00000-0 0  9998
2 10362  50.0000   0.0000 0000000   0.0000 270.0000 13.56072426    15
CTC2_L_00327002-01
1 10363U 22922LA  26037.47793981  .00000000  00000+0  00000-0 0  9995
2 10363  50.0000  12.0000 0000000   0.0000  12.0000 13.56072426    13
CTC2_L_00327002-02
1 10364U 24231BO  26037.47793981  .00000000  00000+0  00000-0 0  9991
2 10364  50.0000  12.0000 0000000   0.0000 102.0000 13.56072426    14
CTC2_L_00327002-03
1 10365U 24618AK  26037.47793981  .00000000  00000+0  00000-0 0  9991
2 10365  50.0000  12.0000 0000000   0.0000 192.0000 13.56072426    14
CTC2_L_00327002-04
1 10366U 24981NV  26037.47793981  .00000000  00000+0  00000-0 0  9995
2 10366  50.0000  12.0000 0000000   0.0000 282.0000 13.56072426    15
CTC2_L_00327003-01
1 10367U 22549O   26037.47793981  .00000000  00000+0  00000-0 0  9994
2 10367  50.0000  24.0000 0000000   0.0000  24.0000 13.56072426    13
CTC2_L_00327003-02
1 10368U 25896BG  26037.47793981  .00000000  00000+0  00000-0 0  9993
2 10368  50.0000  24.0000 0000000   0.0000 114.0000 13.56072426    14
CTC2_L_00327003-03
1 10369U 25914SW  26037.47793981  .00000000  00000+0  00000-0 0  9995
2 10369  50.0000  24.0000 0000000   0.0000 204.0000 13.56072426    15
CTC2_L_00327003-04
1 10370U 22057YI  26037.47793981  .00000000  00000+0  00000-0 0  9992
2 10370  50.0000  24.0000 0000000   0.0000 294.0000 13.56072426    16
CTC2_L_00327004-01
1 10371U 25039JK  26037.47793981  .00000000  00000+0  00000-0 0  9996
2 10371  50.0000  36.0000 0000000   0.0000  36.0000 13.56072426    14
CTC2_L_00327004-02
1 10372U 26063IZ  26037.47793981  .00000000  00000+0  00000-0 0  9995
2 10372  50.0000  36.0000 0000000   0.0000 126.0000 13.56072426    15
CTC2_L_00327004-03
1 10373U 26239YN  26037.47793981  .00000000  00000+0  00000-0 0  9991
2 10373  50.0000  36.0000 0000000   0.0000 216.0000 13.56072426    16
CTC2_L_00327004-04
1 10374U 25329QQ  26037.47793981  .00000000  00000+0  00000-0 0  9991
2 10374  50.0000  36.0000 0000000   0.0000 306.0000 13.56072426    17
CTC2_L_00327005-01
1 10375U 24606LY  26037.47793981  .00000000  00000+0  00000-0 0  9999
2 10375  50.0000  48.0000 0000000   0.0000  48.0000 13.56072426    14
CTC2_L_00327005-02
1 10376U 22105QB  26037.47793981  .00000000  00000+0  00000-0 0  9992
2 10376  50.0000  48.0000 0000000   0.0000 138.0000 13.56072426    15
CTC2_L_00327005-03
1 10377U 24180AP  26037.47793981  .00000000  00000+0  00000-0 0  9998
2 10377  50.0000  48.0000 0000000   0.0000 228.0000 13.56072426    16
CTC2_L_00327005-04
1 10378U 26236D   26037.47793981  .00000000  00000+0  00000-0 0  9993
2 10378  50.0000  48.0000 0000000   0.0000 318.0000 13.56072426    17
CTC2_L_00327006-01
1 10379U 26297OP  26037.47793981  .00000000  00000+0  00000-0 0  9991
2 10379  50.0000  60.0000 0000000   0.0000  60.0000 13.56072426    16
CTC2_L_00327006-02
1 10380U 22986PQ  26037.47793981  .00000000  00000+0  00000-0 0  9994
2 10380  50.0000  60.0000 0000000   0.0000 150.0000 13.56072426    18
CTC2_L_00327006-03
1 10381U 22214RK  26037.47793981  .00000000  00000+0  00000-0 0  9999
2 10381  50.0000  60.0000 0000000   0.0000 240.0000 13.56072426    19
CTC2_L_00327006-04
1 10382U 25153EU  26037.47793981  .00000000  00000+0  00000-0 0  9995
2 10382  50.0000  60.0000 0000000   0.0000 330.0000 13.56072426    10
CTC2_L_00327007-01
1 10383U 23703CA  26037.47793981  .00000000  00000+0  00000-0 0  9995
2 10383  50.0000  72.0000 0000000   0.0000  72.0000 13.56072426    17
CTC2_L_00327007-02
1 10384U 23915IA  26037.47793981  .00000000  00000+0  00000-0 0  9991
2 10384  50.0000  72.0000 0000000   0.0000 162.0000 13.56072426    18
CTC2_L_00327007-03
1 10385U 24082FR  26037.47793981  .00000000  00000+0  00000-0 0  9998
2 10385  50.0000  72.0000 0000000   0.0000 252.0000 13.56072426    19
CTC2_L_00327007-04
1 10386U 23302UD  26037.47793981  .00000000  00000+0  00000-0 0  9993
2 10386  50.0000  72.0000 0000000   0.0000 342.0000 13.56072426    10
CTC2_L_00327008-01
1 10387U 25030DG  26037.47793981  .00000000  00000+0  00000-0 0  9994
2 10387  50.0000  84.0000 0000000   0.0000  84.0000 13.56072426    17
CTC2_L_00327008-02
1 10388U 22173ES  26037.47793981  .00000000  00000+0  00000-0 0  9990
2 10388  50.0000  84.0000 0000000   0.0000 174.0000 13.56072426    18
CTC2_L_00327008-03
1 10389U 22169YE  26037.47793981  .00000000  00000+0  00000-0 0  9996
2 10389  50.0000  84.0000 0000000   0.0000 264.0000 13.56072426    19
CTC2_L_00327008-04
1 10390U 25725ML  26037.47793981  .00000000  00000+0  00000-0 0  9999
2 10390  50.0000  84.0000 0000000   0.0000 354.0000 13.56072426    11
CTC2_L_00327009-01
1 10391U 26741HW  26037.47793981  .00000000  00000+0  00000-0 0  9999
2 10391  50.0000  96.0000 0000000   0.0000  96.0000 13.56072426    18
CTC2_L_00327009-02
1 10392U 24755LL  26037.47793981  .00000000  00000+0  00000-0 0  9993
2 10392  50.0000  96.0000 0000000   0.0000 186.0000 13.56072426    19
CTC2_L_00327009-03
1 10393U 24822KM  26037.47793981  .00000000  00000+0  00000-0 0  9999
2 10393  50.0000  96.0000 0000000   0.0000 276.0000 13.56072426    10
CTC2_L_00327009-04
1 10394U 24395VO  26037.47793981  .00000000  00000+0  00000-0 0  9995
2 10394  50.0000  96.0000 0000000   0.0000   6.0000 13.56072426    12
CTC2_L_00327010-01
1 10395U 24962TS  26037.47793981  .00000000  00000+0  00000-0 0  9996
2 10395  50.0000 108.0000 0000000   0.0000 108.0000 13.56072426    10
CTC2_L_00327010-02
1 10396U 23385QE  26037.47793981  .00000000  00000+0  00000-0 0  9995
2 10396  50.0000 108.0000 0000000   0.0000 198.0000 13.56072426    10
CTC2_L_00327010-03
1 10397U 23764OT  26037.47793981  .00000000  00000+0  00000-0 0  9997
2 10397  50.0000 108.0000 0000000   0.0000 288.0000 13.56072426    11
CTC2_L_00327010-04
1 10398U 23159VL  26037.47793981  .00000000  00000+0  00000-0 0  9996
2 10398  50.0000 108.0000 0000000   0.0000  18.0000 13.56072426    13
CTC2_L_00327011-01
1 10399U 24518EZ  26037.47793981  .00000000  00000+0  00000-0 0  9997
2 10399  50.0000 120.0000 0000000   0.0000 120.0000 13.56072426    12
CTC2_L_00327011-02
1 10400U 22972SH  26037.47793981  .00000000  00000+0  00000-0 0  9992
2 10400  50.0000 120.0000 0000000   0.0000 210.0000 13.56072426    15
CTC2_L_00327011-03
1 10401U 22373K   26037.47793981  .00000000  00000+0  00000-0 0  9998
2 10401  50.0000 120.0000 0000000   0.0000 300.0000 13.56072426    16
CTC2_L_00327011-04
1 10402U 25730BT  26037.47793981  .00000000  00000+0  00000-0 0  9999
2 10402  50.0000 120.0000 0000000   0.0000  30.0000 13.56072426    17
CTC2_L_00327012-01
1 10403U 22646WW  26037.47793981  .00000000  00000+0  00000-0 0  9993
2 10403  50.0000 132.0000 0000000   0.0000 132.0000 13.56072426    14
CTC2_L_00327012-02
1 10404U 23496FB  26037.47793981  .00000000  00000+0  00000-0 0  9998
2 10404  50.0000 132.0000 0000000   0.0000 222.0000 13.56072426    15
CTC2_L_00327012-03
1 10405U 23645XW  26037.47793981  .00000000  00000+0  00000-0 0  9995
2 10405  50.0000 132.0000 0000000   0.0000 312.0000 13.56072426    16
CTC2_L_00327012-04
1 10406U 24927KK  26037.47793981  .00000000  00000+0  00000-0 0  9990
2 10406  50.0000 132.0000 0000000   0.0000  42.0000 13.56072426    17
CTC2_L_00327013-01
1 10407U 26837QZ  26037.47793981  .00000000  00000+0  00000-0 0  9993
2 10407  50.0000 144.0000 0000000   0.0000 144.0000 13.56072426    14
CTC2_L_00327013-02
1 10408U 23504YV  26037.47793981  .00000000  00000+0  00000-0 0  9992
2 10408  50.0000 144.0000 0000000   0.0000 234.0000 13.56072426    15
CTC2_L_00327013-03
1 10409U 24750ZX  26037.47793981  .00000000  00000+0  00000-0 0  9997
2 10409  50.0000 144.0000 0000000   0.0000 324.0000 13.56072426    16
CTC2_L_00327013-04
1 10410U 24855AB  26037.47793981  .00000000  00000+0  00000-0 0  9995
2 10410  50.0000 144.0000 0000000   0.0000  54.0000 13.56072426    18
CTC2_L_00327014-01
1 10411U 24081MI  26037.47793981  .00000000  00000+0  00000-0 0  9997
2 10411  50.0000 156.0000 0000000   0.0000 156.0000 13.56072426    15
CTC2_L_00327014-02
1 10412U 25207YD  26037.47793981  .00000000  00000+0  00000-0 0  9999
2 10412  50.0000 156.0000 0000000   0.0000 246.0000 13.56072426    16
CTC2_L_00327014-03
1 10413U 23473GT  26037.47793981  .00000000  00000+0  00000-0 0  9993
2 10413  50.0000 156.0000 0000000   0.0000 336.0000 13.56072426    17
CTC2_L_00327014-04
1 10414U 26401FX  26037.47793981  .00000000  00000+0  00000-0 0  9998
2 10414  50.0000 156.0000 0000000   0.0000  66.0000 13.56072426    18
CTC2_L_00327015-01
1 10415U 24135FJ  26037.47793981  .00000000  00000+0  00000-0 0  9991
2 10415  50.0000 168.0000 0000000   0.0000 168.0000 13.56072426    15
CTC2_L_00327015-02
1 10416U 24821SN  26037.47793981  .00000000  00000+0  00000-0 0  9994
2 10416  50.0000 168.0000 0000000   0.0000 258.0000 13.56072426    16
CTC2_L_00327015-03
1 10417U 23638XV  26037.47793981  .00000000  00000+0  00000-0 0  9990
2 10417  50.0000 168.0000 0000000   0.0000 348.0000 13.56072426    17
CTC2_L_00327015-04
1 10418U 22082HR  26037.47793981  .00000000  00000+0  00000-0 0  9993
2 10418  50.0000 168.0000 0000000   0.0000  78.0000 13.56072426    18
CTC2_L_00327016-01
1 10419U 26475YV  26037.47793981  .00000000  00000+0  00000-0 0  9994
2 10419  50.0000 180.0000 0000000   0.0000 180.0000 13.56072426    17
CTC2_L_00327016-02
1 10420U 26867SU  26037.47793981  .00000000  00000+0  00000-0 0  9991
2 10420  50.0000 180.0000 0000000   0.0000 270.0000 13.56072426    19
